{
    "links": {
        "self": "http://www.neowsapp.com/rest/v1/neo/3769392?api_key=iIulBulltgU6a56xZRHN4H3l9WmuAYTsLGpBGhQ2"
    },
    "id": "3769392",
    "neo_reference_id": "3769392",
    "name": "(2017 CE32)",
    "designation": "2017 CE32",
    "nasa_jpl_url": "http://ssd.jpl.nasa.gov/sbdb.cgi?sstr=3769392",
    "absolute_magnitude_h": 23.6,
    "estimated_diameter": {
        "kilometers": {
            "estimated_diameter_min": 0.0506471459,
            "estimated_diameter_max": 0.1132504611
        },
        "meters": {
            "estimated_diameter_min": 50.6471458835,
            "estimated_diameter_max": 113.2504610618
        },
        "miles": {
            "estimated_diameter_min": 0.0314706677,
            "estimated_diameter_max": 0.0703705522
        },
        "feet": {
            "estimated_diameter_min": 166.1651821003,
            "estimated_diameter_max": 371.5566426699
        }
    },
    "is_potentially_hazardous_asteroid": false,
    "close_approach_data": [
        {
            "close_approach_date": "2014-11-23",
            "close_approach_date_full": "2014-Nov-23 14:07",
            "epoch_date_close_approach": 1416751620000,
            "relative_velocity": {
                "kilometers_per_second": "9.8400066096",
                "kilometers_per_hour": "35424.0237944968",
                "miles_per_hour": "22011.110784975"
            },
            "miss_distance": {
                "astronomical": "0.01651028",
                "lunar": "6.42249892",
                "kilometers": "2469902.7211036",
                "miles": "1534726.38468568"
            },
            "orbiting_body": "Mars"
        },
        {
            "close_approach_date": "2016-09-20",
            "close_approach_date_full": "2016-Sep-20 00:32",
            "epoch_date_close_approach": 1474331520000,
            "relative_velocity": {
                "kilometers_per_second": "3.8205166457",
                "kilometers_per_hour": "13753.8599246515",
                "miles_per_hour": "8546.113684848"
            },
            "miss_distance": {
                "astronomical": "0.3743518996",
                "lunar": "145.6228889444",
                "kilometers": "56002246.810613852",
                "miles": "34798182.5549490776"
            },
            "orbiting_body": "Earth"
        },
        {
            "close_approach_date": "2017-01-21",
            "close_approach_date_full": "2017-Jan-21 02:10",
            "epoch_date_close_approach": 1484964600000,
            "relative_velocity": {
                "kilometers_per_second": "9.2132423788",
                "kilometers_per_hour": "33167.6725637832",
                "miles_per_hour": "20609.1018772019"
            },
            "miss_distance": {
                "astronomical": "0.097422074",
                "lunar": "37.897186786",
                "kilometers": "14574134.76138238",
                "miles": "9055947.410861644"
            },
            "orbiting_body": "Earth"
        }
    ],
    "orbital_data": {
        "orbit_id": "2",
        "orbit_determination_date": "2017-04-06 08:20:12",
        "first_observation_date": "2017-02-03",
        "last_observation_date": "2017-02-15",
        "data_arc_in_days": 12,
        "observations_used": 8,
        "orbit_uncertainty": "9",
        "minimum_orbit_intersection": ".0655013",
        "jupiter_tisserand_invariant": "4.555",
        "epoch_osculation": "2457788.5",
        "eccentricity": ".3692921239765909",
        "semi_major_axis": "1.453761260853635",
        "inclination": "6.732812097052998",
        "ascending_node_longitude": "345.3157566997336",
        "orbital_period": "640.2330133054486",
        "perihelion_distance": ".9168986770781091",
        "perihelion_argument": "82.97707458046035",
        "aphelion_distance": "1.99062384462916",
        "perihelion_time": "2457733.275934155719",
        "mean_anomaly": "31.05223143883131",
        "mean_motion": ".5622952776854818",
        "equinox": "J2000",
        "orbit_class": {
            "orbit_class_type": "APO",
            "orbit_class_description": "Near-Earth asteroid orbits which cross the Earth’s orbit similar to that of 1862 Apollo",
            "orbit_class_range": "a (semi-major axis) > 1.0 AU; q (perihelion) < 1.017 AU"
        }
    },
    "is_sentry_object": false
}